{"type": "FeatureCollection", "features": [ {"type": "Feature", "properties": {"norad_id": 66977, "name": "STARLINK-35770", "group": "last-30-days", "lat": -18.344458932753607, "lon": -27.791633261900447, "alt_km": 314.07185188019685, "timestamp": "2025-12-18T13:51:48.382036+00:00", "meta": {"OBJECT_NAME": "STARLINK-35770", "OBJECT_ID": "2025-288U", "EPOCH": "2025-12-18T06:00:02.999808", "MEAN_MOTION": 15.87264047, "ECCENTRICITY": 0.00015311, "INCLINATION": 43.0016, "RA_OF_ASC_NODE": 133.3875, "ARG_OF_PERICENTER": 275.7921, "MEAN_ANOMALY": 217.9082, "EPHEMERIS_TYPE": 0, "CLASSIFICATION_TYPE": "U", "NORAD_CAT_ID": 66977, "ELEMENT_SET_NO": 999, "REV_AT_EPOCH": 271, "BSTAR": -0.0056929431, "MEAN_MOTION_DOT": -0.01354388, "MEAN_MOTION_DDOT": 0}, "tle": {"line1": "1 66977U 25288U   25352.25003472 -.01354388  00000+0 -56929-2 0  9996", "line2": "2 66977  43.0016 133.3875 0001531 275.7921 217.9082 15.87264047  2717"}}, "geometry": {"type": "Point", "coordinates": [-27.791633261900447, -18.344458932753607]}}, {"type": "Feature", "properties": {"norad_id": 66978, "name": "STARLINK-35787", "group": "last-30-days", "lat": -22.383487537719535, "lon": -22.424107381207918, "alt_km": 314.1272778871926, "timestamp": "2025-12-18T13:51:48.382047+00:00", "meta": {"OBJECT_NAME": "STARLINK-35787", "OBJECT_ID": "2025-288V", "EPOCH": "2025-12-18T06:00:02.999808", "MEAN_MOTION": 15.87359906, "ECCENTRICITY": 0.00015635, "INCLINATION": 43.0017, "RA_OF_ASC_NODE": 133.3713, "ARG_OF_PERICENTER": 274.9442, "MEAN_ANOMALY": 225.1404, "EPHEMERIS_TYPE": 0, "CLASSIFICATION_TYPE": "U", "NORAD_CAT_ID": 66978, "ELEMENT_SET_NO": 999, "REV_AT_EPOCH": 271, "BSTAR": -0.0059638054, "MEAN_MOTION_DOT": -0.0141635, "MEAN_MOTION_DDOT": 0}, "tle": {"line1": "1 66978U 25288V   25352.25003472 -.01416350  00000+0 -59638-2 0  9995", "line2": "2 66978  43.0017 133.3713 0001563 274.9442 225.1404 15.87359906  2712"}}, "geometry": {"type": "Point", "coordinates": [-22.424107381207918, -22.383487537719535]}}, {"type": "Feature", "properties": {"norad_id": 66979, "name": "STARLINK-36107", "group": "last-30-days", "lat": -24.013361288991696, "lon": -20.098692742781655, "alt_km": 314.2223768468939, "timestamp": "2025-12-18T13:51:48.382057+00:00", "meta": {"OBJECT_NAME": "STARLINK-36107", "OBJECT_ID": "2025-288W", "EPOCH": "2025-12-18T06:00:02.999808", "MEAN_MOTION": 15.87374606, "ECCENTRICITY": 0.00015399, "INCLINATION": 43.0016, "RA_OF_ASC_NODE": 133.3645, "ARG_OF_PERICENTER": 274.7163, "MEAN_ANOMALY": 228.0581, "EPHEMERIS_TYPE": 0, "CLASSIFICATION_TYPE": "U", "NORAD_CAT_ID": 66979, "ELEMENT_SET_NO": 999, "REV_AT_EPOCH": 271, "BSTAR": -0.0060854959, "MEAN_MOTION_DOT": -0.01442265, "MEAN_MOTION_DDOT": 0}, "tle": {"line1": "1 66979U 25288W   25352.25003472 -.01442265  00000+0 -60855-2 0  9993", "line2": "2 66979  43.0016 133.3645 0001539 274.7163 228.0581 15.87374606  2719"}}, "geometry": {"type": "Point", "coordinates": [-20.098692742781655, -24.013361288991696]}}, {"type": "Feature", "properties": {"norad_id": 66980, "name": "STARLINK-36086", "group": "last-30-days", "lat": -25.374270107847885, "lon": -18.07046640633075, "alt_km": 314.1874736492773, "timestamp": "2025-12-18T13:51:48.382068+00:00", "meta": {"OBJECT_NAME": "STARLINK-36086", "OBJECT_ID": "2025-288X", "EPOCH": "2025-12-18T06:00:02.999808", "MEAN_MOTION": 15.87396025, "ECCENTRICITY": 0.00014651, "INCLINATION": 43.0018, "RA_OF_ASC_NODE": 133.3585, "ARG_OF_PERICENTER": 269.9177, "MEAN_ANOMALY": 235.1331, "EPHEMERIS_TYPE": 0, "CLASSIFICATION_TYPE": "U", "NORAD_CAT_ID": 66980, "ELEMENT_SET_NO": 999, "REV_AT_EPOCH": 271, "BSTAR": -0.0061447974, "MEAN_MOTION_DOT": -0.01455691, "MEAN_MOTION_DDOT": 0}, "tle": {"line1": "1 66980U 25288X   25352.25003472 -.01455691  00000+0 -61448-2 0  9991", "line2": "2 66980  43.0018 133.3585 0001465 269.9177 235.1331 15.87396025  2716"}}, "geometry": {"type": "Point", "coordinates": [-18.07046640633075, -25.374270107847885]}}, {"type": "Feature", "properties": {"norad_id": 66981, "name": "STARLINK-36142", "group": "last-30-days", "lat": -26.616100881793997, "lon": -16.13967128149726, "alt_km": 314.14240157335644, "timestamp": "2025-12-18T13:51:48.382080+00:00", "meta": {"OBJECT_NAME": "STARLINK-36142", "OBJECT_ID": "2025-288Y", "EPOCH": "2025-12-18T06:00:02.999808", "MEAN_MOTION": 15.87416191, "ECCENTRICITY": 0.00015837, "INCLINATION": 43.0018, "RA_OF_ASC_NODE": 133.3533, "ARG_OF_PERICENTER": 269.5311, "MEAN_ANOMALY": 237.6393, "EPHEMERIS_TYPE": 0, "CLASSIFICATION_TYPE": "U", "NORAD_CAT_ID": 66981, "ELEMENT_SET_NO": 999, "REV_AT_EPOCH": 271, "BSTAR": -0.0061688441, "MEAN_MOTION_DOT": -0.01461986, "MEAN_MOTION_DDOT": 0}, "tle": {"line1": "1 66981U 25288Y   25352.25003472 -.01461986  00000+0 -61688-2 0  9992", "line2": "2 66981  43.0018 133.3533 0001583 269.5311 237.6393 15.87416191  2719"}}, "geometry": {"type": "Point", "coordinates": [-16.13967128149726, -26.616100881793997]}}, {"type": "Feature", "properties": {"norad_id": 66982, "name": "STARLINK-36113", "group": "last-30-days", "lat": -27.868239069425936, "lon": -14.105130825505935, "alt_km": 314.22532676284027, "timestamp": "2025-12-18T13:51:48.382093+00:00", "meta": {"OBJECT_NAME": "STARLINK-36113", "OBJECT_ID": "2025-288Z", "EPOCH": "2025-12-18T06:00:02.999808", "MEAN_MOTION": 15.87436044, "ECCENTRICITY": 0.00015704, "INCLINATION": 43.0015, "RA_OF_ASC_NODE": 133.3476, "ARG_OF_PERICENTER": 273.3491, "MEAN_ANOMALY": 236.0072, "EPHEMERIS_TYPE": 0, "CLASSIFICATION_TYPE": "U", "NORAD_CAT_ID": 66982, "ELEMENT_SET_NO": 999, "REV_AT_EPOCH": 271, "BSTAR": -0.0061892737, "MEAN_MOTION_DOT": -0.01497828, "MEAN_MOTION_DDOT": 0}, "tle": {"line1": "1 66982U 25288Z   25352.25003472 -.01497828  00000+0 -61893-2 0  9995", "line2": "2 66982  43.0015 133.3476 0001570 273.3491 236.0072 15.87436044  2717"}}, "geometry": {"type": "Point", "coordinates": [-14.105130825505935, -27.868239069425936]}}, {"type": "Feature", "properties": {"norad_id": 66983, "name": "STARLINK-36145", "group": "last-30-days", "lat": -30.32397548327528, "lon": -9.808071976483001, "alt_km": 314.21047258989165, "timestamp": "2025-12-18T13:51:48.382104+00:00", "meta": {"OBJECT_NAME": "STARLINK-36145", "OBJECT_ID": "2025-288AA", "EPOCH": "2025-12-18T06:00:02.999808", "MEAN_MOTION": 15.87472647, "ECCENTRICITY": 0.00015594, "INCLINATION": 43.0015, "RA_OF_ASC_NODE": 133.3364, "ARG_OF_PERICENTER": 270.9315, "MEAN_ANOMALY": 242.8879, "EPHEMERIS_TYPE": 0, "CLASSIFICATION_TYPE": "U", "NORAD_CAT_ID": 66983, "ELEMENT_SET_NO": 999, "REV_AT_EPOCH": 271, "BSTAR": -0.0062677627, "MEAN_MOTION_DOT": -0.01517048, "MEAN_MOTION_DDOT": 0}, "tle": {"line1": "1 66983U 25288AA  25352.25003472 -.01517048  00000+0 -62678-2 0  9995", "line2": "2 66983  43.0015 133.3364 0001559 270.9315 242.8879 15.87472647  2718"}}, "geometry": {"type": "Point", "coordinates": [-9.808071976483001, -30.32397548327528]}}, {"type": "Feature", "properties": {"norad_id": 66984, "name": "STARLINK-35591", "group": "last-30-days", "lat": -29.123311111764966, "lon": -11.965279042155613, "alt_km": 314.1592910956733, "timestamp": "2025-12-18T13:51:48.382114+00:00", "meta": {"OBJECT_NAME": "STARLINK-35591", "OBJECT_ID": "2025-288AB", "EPOCH": "2025-12-18T06:00:02.999808", "MEAN_MOTION": 15.87452139, "ECCENTRICITY": 0.00015556, "INCLINATION": 43.0015, "RA_OF_ASC_NODE": 133.3415, "ARG_OF_PERICENTER": 268.2609, "MEAN_ANOMALY": 243.346, "EPHEMERIS_TYPE": 0, "CLASSIFICATION_TYPE": "U", "NORAD_CAT_ID": 66984, "ELEMENT_SET_NO": 999, "REV_AT_EPOCH": 271, "BSTAR": -0.0062229533, "MEAN_MOTION_DOT": -0.01506094, "MEAN_MOTION_DDOT": 0}, "tle": {"line1": "1 66984U 25288AB  25352.25003472 -.01506094  00000+0 -62230-2 0  9999", "line2": "2 66984  43.0015 133.3415 0001555 268.2609 243.3460 15.87452139  2714"}}, "geometry": {"type": "Point", "coordinates": [-11.965279042155613, -29.123311111764966]}}, {"type": "Feature", "properties": {"norad_id": 66985, "name": "STARLINK-36103", "group": "last-30-days", "lat": -31.561265121389155, "lon": -7.455678323097662, "alt_km": 314.2913803007623, "timestamp": "2025-12-18T13:51:48.382125+00:00", "meta": {"OBJECT_NAME": "STARLINK-36103", "OBJECT_ID": "2025-288AC", "EPOCH": "2025-12-18T06:00:02.999808", "MEAN_MOTION": 15.87484919, "ECCENTRICITY": 0.00014872, "INCLINATION": 43.0015, "RA_OF_ASC_NODE": 133.3303, "ARG_OF_PERICENTER": 272.8352, "MEAN_ANOMALY": 243.345, "EPHEMERIS_TYPE": 0, "CLASSIFICATION_TYPE": "U", "NORAD_CAT_ID": 66985, "ELEMENT_SET_NO": 999, "REV_AT_EPOCH": 271, "BSTAR": -0.0062842243, "MEAN_MOTION_DOT": -0.01521332, "MEAN_MOTION_DDOT": 0}, "tle": {"line1": "1 66985U 25288AC  25352.25003472 -.01521332  00000+0 -62842-2 0  9991", "line2": "2 66985  43.0015 133.3303 0001487 272.8352 243.3450 15.87484919  2711"}}, "geometry": {"type": "Point", "coordinates": [-7.455678323097662, -31.561265121389155]}}, {"type": "Feature", "properties": {"norad_id": 66986, "name": "STARLINK-36135", "group": "last-30-days", "lat": -32.75589007968773, "lon": -5.037231199920311, "alt_km": 314.25620232980054, "timestamp": "2025-12-18T13:51:48.382135+00:00", "meta": {"OBJECT_NAME": "STARLINK-36135", "OBJECT_ID": "2025-288AD", "EPOCH": "2025-12-18T06:00:02.999808", "MEAN_MOTION": 15.87497566, "ECCENTRICITY": 0.00015306, "INCLINATION": 43.0012, "RA_OF_ASC_NODE": 133.3237, "ARG_OF_PERICENTER": 270.9726, "MEAN_ANOMALY": 247.5733, "EPHEMERIS_TYPE": 0, "CLASSIFICATION_TYPE": "U", "NORAD_CAT_ID": 66986, "ELEMENT_SET_NO": 999, "REV_AT_EPOCH": 271, "BSTAR": -0.0063138568, "MEAN_MOTION_DOT": -0.01528548, "MEAN_MOTION_DDOT": 0}, "tle": {"line1": "1 66986U 25288AD  25352.25003472 -.01528548  00000+0 -63139-2 0  9998", "line2": "2 66986  43.0012 133.3237 0001530 270.9726 247.5733 15.87497566  2710"}}, "geometry": {"type": "Point", "coordinates": [-5.037231199920311, -32.75589007968773]}}]}